satname,norad_id,inclination_deg,eccentricity,mean_motion_rev_per_day,perigee_km,apogee_km,l1,l2
STARLINK-1454,45671,53.0511,0.000773,15.48167575,416.83007970997824,427.3432254768877,1 45671U 20035Q   26055.59286234  .00072208  00000+0  13457-2 0  9990,2 45671  53.0511 115.6519 0007730   9.1925 350.9222 15.48167575316889
STARLINK-1456,45673,53.0485,0.0001468,15.49173724,418.1441114985573,420.13979259887856,1 45673U 20035S   26055.52582983  .00025724  00000+0  47123-3 0  9994,2 45673  53.0485 109.4562 0001468  87.5675 272.5501 15.49173724316988
STARLINK-1457,45674,53.0473,0.000995,15.7515746,337.49443946778047,350.8718565623303,1 45674U 20035T   26055.80045321  .00094054  00000+0  61134-3 0  9996,2 45674  53.0473  86.8035 0009950  18.3742 341.7635 15.75157460317290
STARLINK-1458,45675,53.053,0.0005362,15.41238819,438.79482686657957,446.10922653881516,1 45675U 20035U   26055.45781240  .00070227  00000+0  16578-2 0  9992,2 45675  53.0530 118.2475 0005362  33.5829 326.5514 15.41238819316816
STARLINK-1460,45676,53.0967,0.0001076,15.16788643,514.8119686866403,516.295490931695,1 45676U 20035V   26055.91668981  .00022992  00000+0  11686-2 0  9991,2 45676  53.0967 123.6617 0001076 100.5753 175.5234 15.16788643  5732
STARLINK-1392,45677,53.1001,0.0001932,15.17114514,513.2348633758893,515.8982040213114,1 45677U 20035W   26055.91668981  .01452066  00000+0  66170-1 0  9999,2 45677  53.1001 123.7481 0001932  85.3919  82.3598 15.17114514  5838
STARLINK-1394,45679,53.0504,0.0001434,15.47421623,423.2964278157215,425.24735868630523,1 45679U 20035Y   26055.51544405  .00020412  00000+0  39939-3 0  9991,2 45679  53.0504  99.6455 0001434  79.0035 281.1133 15.47421623317111
STARLINK-1402,45685,53.0498,0.0001315,15.42651308,437.39163324142373,439.1843530146152,1 45685U 20035AE  26055.77079552  .00031645  00000+0  72164-3 0  9999,2 45685  53.0498  84.7988 0001315 240.7585 119.3289 15.42651308317351
STARLINK-1404,45686,53.1589,0.0001225,15.30193905,474.39373019326285,476.07280590893515,1 45686U 20035AF  26055.37166218  .00001317  00000+0  56586-4 0  9996,2 45686  53.1589 111.5602 0001225  89.0168 271.0973 15.30193905316937
STARLINK-1413,45689,53.1607,0.000115,15.3019082,474.45434074152126,476.03061802177945,1 45689U 20035AJ  26055.63922710  .00000348  00000+0  23871-4 0  9999,2 45689  53.1607 110.1958 0001150  88.5210 271.5922 15.30190820316896
STARLINK-1417,45693,53.0508,0.0003099,15.11710239,528.8429640322092,533.1252372903991,1 45693U 20035AN  26055.57693375  .00020998  00000+0  12324-2 0  9991,2 45693  53.0508 113.7011 0003099 198.3500 161.7379 15.11710239316915
STARLINK-1420,45695,53.0546,0.0003366,15.48556264,418.6601246153032,423.2372691064311,1 45695U 20035AQ  26055.47687326  .00027799  00000+0  51948-3 0  9993,2 45695  53.0546  86.0049 0003366  50.9394 309.1913 15.48556264317305
STARLINK-1422,45696,53.1593,0.0001147,15.30192344,474.4518468462802,476.0240110549803,1 45696U 20035AR  26055.45065551  .00000813  00000+0  39583-4 0  9992,2 45696  53.1593 111.0747 0001147  98.2255 261.8876 15.30192344316946
STARLINK-1351,45697,53.0534,0.0002083,15.49762734,416.00405829416013,418.8350871623579,1 45697U 20035AS  26055.37972947  .00022012  00000+0  39633-3 0  9990,2 45697  53.0534  85.5754 0002083  65.0275 295.0949 15.49762734317305
STARLINK-1398,45699,53.0397,0.0004985,15.87165466,306.90009167630706,313.5683978073139,1 45699U 20035AU  26055.91668981  .00162823  00000+0  60247-3 0  9992,2 45699  53.0397   4.3544 0004985  86.3319  64.1552 15.87165466  5926
STARLINK-1400,45700,53.0521,0.0006859,15.47916065,418.15846770585085,427.48802497177803,1 45700U 20035AV  26055.78510534  .00067710  00000+0  12745-2 0  9998,2 45700  53.0521  84.7997 0006859  41.6138 318.5390 15.47916065317340
STARLINK-1403,45701,53.0547,0.0001615,15.06396931,546.1025186860443,548.3394093084144,1 45701U 20035AW  26055.80324678  .00000950  00000+0  82696-4 0  9991,2 45701  53.0547  94.4700 0001615  84.2323 275.8850 15.06396931317203
STARLINK-1407,45703,53.0367,0.001217,15.56719732,388.912649121884,405.4037175981821,1 45703U 20035AY  26055.61424911  .00047477  00000+0  65363-3 0  9999,2 45703  53.0367  19.3033 0012170  53.4693 306.7437 15.56719732318250
STARLINK-1411,45706,53.046,0.0005368,15.59249487,386.19491454827585,393.4610017273326,1 45706U 20035BB  26055.37297184  .00085056  00000+0  10578-2 0  9997,2 45706  53.0460  46.3677 0005368  69.1536 291.0050 15.59249487317841
STARLINK-1423,45710,53.052,0.000581,15.49956722,412.90466412595197,420.8004419866038,1 45710U 20035BF  26055.51359182  .00078259  00000+0  13687-2 0  9996,2 45710  53.0520  85.3624 0005810  50.0763 310.0754 15.49956722317301
STARLINK-1433,45711,53.052,0.0006369,15.52079938,406.3304134063055,414.97797562988217,1 45711U 20035BG  26055.62021537  .00075802  00000+0  12298-2 0  9997,2 45711  53.0520  84.0883 0006369  46.3060 313.8476 15.52079938317337
STARLINK-1434,45712,53.0563,0.0004335,15.25256338,487.0384636213994,492.9931521058161,1 45712U 20035BH  26055.79699257  .00039227  00000+0  15446-2 0  9995,2 45712  53.0563  79.6816 0004335  38.2105 321.9199 15.25256338317425
STARLINK-1465,45731,53.0532,0.0003672,15.47609824,421.2227572973288,426.2180413713995,1 45731U 20038B   26054.38258912  .00032751  00000+0  63053-3 0  9995,2 45731  53.0532 291.6697 0003672 163.1165 196.9965 15.47609824314167
STARLINK-1471,45735,53.046,0.000257,15.48056301,420.6647733416512,424.16025579213874,1 45735U 20038F   26055.80232826  .00024826  00000+0  47314-3 0  9999,2 45735  53.0460 203.7265 0002570 170.3844 189.7212 15.48056301315530
STARLINK-1480,45741,53.0519,0.0009555,15.46097054,421.65308885134436,434.65991573422707,1 45741U 20038M   26055.61566385  .00060497  00000+0  12136-2 0  9992,2 45741  53.0519 279.6988 0009555 134.9644 225.2139 15.46097054314452
STARLINK-1500,45744,53.0367,0.0003219,15.33956308,461.8198131140007,466.22479527404175,1 45744U 20038Q   26055.84571183  .00021991  00000+0  66928-3 0  9997,2 45744  53.0367 252.9632 0003219 174.4823 185.6214 15.33956308314843
STARLINK-1504,45746,53.0222,0.0002616,15.52170295,408.61484768515766,412.1666053916815,1 45746U 20038S   26055.74867390  .00030400  00000+0  49923-3 0  9997,2 45746  53.0222 204.5710 0002616 151.1922 208.9232 15.52170295315504
STARLINK-1506,45747,53.0773,0.0003385,15.25693753,486.3785910422039,491.0274417332994,1 45747U 20038T   26055.56028149  .00006756  00000+0  27473-3 0  9992,2 45747  53.0773 263.0664 0003385 174.2965 185.8071 15.25693753314682
STARLINK-1464,45751,53.0552,0.0003787,15.42512852,436.11434742202346,441.2774166468762,1 45751U 20038X   26055.61400619  .00032095  00000+0  73502-3 0  9998,2 45751  53.0552 266.7193 0003787 166.6326 193.4779 15.42512852314635
STARLINK-1477,45754,53.0503,0.0001801,15.13480873,524.3509948020292,526.8377188367549,1 45754U 20038AA  26055.62767765  .00019367  00000+0  10837-2 0  9998,2 45754  53.0503 272.2894 0001801  89.8264 270.2935 15.13480873314550
STARLINK-1478,45755,53.0569,0.0006454,15.52304149,405.6194106330877,414.3815384852496,1 45755U 20038AB  26055.83162294  .00082503  00000+0  13260-2 0  9993,2 45755  53.0569 259.9190 0006454 158.9467 201.1809 15.52304149314733
STARLINK-1484,45756,53.0009,0.0006654,15.9305028,289.31314124685287,298.19209194862106,1 45756U 20038AC  26055.91668981  .00242550  33447-4  68333-3 0  9995,2 45756  53.0009 122.4093 0006654   6.9159 182.1656 15.93050280  5904
STARLINK-1493,45759,53.0527,0.0001892,15.45173321,429.5805863850892,432.1571141988388,1 45759U 20038AF  26055.79618149  .00052936  00000+0  10998-2 0  9999,2 45759  53.0527 266.1903 0001892 174.6135 185.4892 15.45173321314645
STARLINK-1494,45760,53.0482,0.0002311,15.7093645,354.6630937573018,357.77571328701015,1 45760U 20038AG  26055.46623333  .00086341  00000+0  67469-3 0  9999,2 45760  53.0482 217.2243 0002311 296.9555  63.1226 15.70936450315318
STARLINK-1502,45764,53.0513,0.0001316,15.44975027,430.55530950871525,432.34759318911074,1 45764U 20038AL  26055.56275685  .00038277  00000+0  80461-3 0  9999,2 45764  53.0513 268.6430 0001316  84.8176 275.2980 15.44975027314600
STARLINK-1470,45772,53.0465,0.0002298,15.26603405,484.3975586911811,487.55230453495096,1 45772U 20038AU  26055.52135075  .00045714  00000+0  17252-2 0  9993,2 45772  53.0465 235.3762 0002298 140.2174 219.8993 15.26603405315066
STARLINK-1482,45773,53.1622,0.0001141,15.30187448,474.4705759376102,476.0345194323927,1 45773U 20038AV  26055.55272809  .00000706  00000+0  35986-4 0  9992,2 45773  53.1622 252.0368 0001141  85.6314 274.4817 15.30187448314830
STARLINK-1496,45780,53.0526,0.000671,15.45600108,425.0473422871937,434.18334593299005,1 45780U 20038BC  26055.78417929  .00071282  00000+0  14521-2 0  9996,2 45780  53.0526 239.4491 0006710 155.1479 204.9851 15.45600108315014
STARLINK-1513,45786,53.1575,0.0001682,15.30208338,474.03744413667664,476.3429033979328,1 45786U 20038BJ  26055.56223494  .00002528  00000+0  97427-4 0  9995,2 45786  53.1575 252.1239 0001682  91.7161 268.4033 15.30208338314832
STARLINK-1522,46027,53.06,3.88e-05,15.06408746,546.9160503536123,547.4534553216317,1 46027U 20055A   26055.75806696  .00002142  00000+0  16257-3 0  9998,2 46027  53.0600 184.6685 0000388  98.6627 261.4406 15.06408746306935
STARLINK-1523,46028,53.0541,0.0001456,15.06387333,546.2420443383035,548.2587171435753,1 46028U 20055B   26055.64013814  .00000095  00000+0  25311-4 0  9996,2 46028  53.0541 185.1989 0001456  94.7831 265.3324 15.06387333306934
STARLINK-1526,46029,53.0556,0.0001271,15.06390828,546.3594535652774,548.119884314523,1 46029U 20055C   26055.50007404 -.00000169  00000+0  75645-5 0  9999,2 46029  53.0556 185.8279 0001271  96.8169 263.2965 15.06390828306900
STARLINK-1555,46032,53.0554,0.0001805,15.06395943,545.9739644277961,548.4740197459387,1 46032U 20055F   26055.35263262  .00001071  00000+0  90837-4 0  9993,2 46032  53.0554 186.4914 0001805  87.5186 272.6010 15.06395943306889
